[{"OBJECT_NAME":"STARLINK-30265","OBJECT_ID":"2023-122Q","EPOCH":"2026-03-09T02:41:42.936864","MEAN_MOTION":15.26741509,"ECCENTRICITY":0.00012252,"INCLINATION":43.0004,"RA_OF_ASC_NODE":95.3336,"ARG_OF_PERICENTER":290.4065,"MEAN_ANOMALY":69.6655,"EPHEMERIS_TYPE":0,"CLASSIFICATION_TYPE":"U","NORAD_CAT_ID":57646,"ELEMENT_SET_NO":999,"REV_AT_EPOCH":14212,"BSTAR":4.6145162e-5,"MEAN_MOTION_DOT":9.78e-6,"MEAN_MOTION_DDOT":0},{"OBJECT_NAME":"VSP RF C1","OBJECT_ID":"2024-043AQ","EPOCH":"2026-03-09T21:56:05.358624","MEAN_MOTION":15.29409663,"ECCENTRICITY":0.00093965,"INCLINATION":97.5441,"RA_OF_ASC_NODE":205.1792,"ARG_OF_PERICENTER":219.6172,"MEAN_ANOMALY":140.4382,"EPHEMERIS_TYPE":0,"CLASSIFICATION_TYPE":"U","NORAD_CAT_ID":59136,"ELEMENT_SET_NO":999,"REV_AT_EPOCH":11190,"BSTAR":0.00026222052,"MEAN_MOTION_DOT":7.409e-5,"MEAN_MOTION_DDOT":0}]
